#aV2022  8  9  0  0  0.00000000     288 DD+AD WGS84 FIT  NGA
## 2222 172800.00000000   300.00000000 59800 0.0000000000000
+   32     1  2  3  4  5  6  7  8  9 10 11 12 13 14 15 16 17
+         18 19 20 21 22 23 24 25 26 27 28 29 30 31 32  0  0
+          0  0  0  0  0  0  0  0  0  0  0  0  0  0  0  0  0
+          0  0  0  0  0  0  0  0  0  0  0  0  0  0  0  0  0
+          0  0  0  0  0  0  0  0  0  0  0  0  0  0  0  0  0
++         2  2  2  2  2  2  2  2  2  2  2  2  2  2  2  2  2
++         2  2  2  2  2  2  2  2  2  2  2  2  2  2  2  0  0
++         0  0  0  0  0  0  0  0  0  0  0  0  0  0  0  0  0
++         0  0  0  0  0  0  0  0  0  0  0  0  0  0  0  0  0
++         0  0  0  0  0  0  0  0  0  0  0  0  0  0  0  0  0
%c cc cc ccc ccc cccc cccc cccc cccc ccccc ccccc ccccc ccccc
%c cc cc ccc ccc cccc cccc cccc cccc ccccc ccccc ccccc ccccc
%f  0.0000000  0.000000000  0.00000000000  0.000000000000000
%f  0.0000000  0.000000000  0.00000000000  0.000000000000000
%i    0    0    0    0      0      0      0      0         0
%i    0    0    0    0      0      0      0      0         0
/*      NGA, ST. LOUIS,MO.                                  
/*   EPHEMERIS COMPUTED FROM 2 DAYS OF DATA                 
/*   EPOCHA v8 SMOOTHER                                     
/*   G2139 IERS2010 SATIGS SATAPC                           
*  2022  8  9 14 25  0.00000000
P  1  22470.281047  14510.205680   -328.334853    305.262587                    
V  1   -919.455233   1384.324814 -32116.791149     -0.070809                    
P  2 -12392.581518 -18238.564977  15343.439999   -649.541947                    
V  2  17217.208831   6747.618898  23044.540745      0.009622                    
P  3  12256.473162  14283.114687  18662.654535   -327.905834                    
V  3  -1891.065957  23832.620537 -16779.008242     -0.086334                    
P  4  18012.620249   5627.666000  18734.223011   -135.275930                    
V  4 -20645.079396  11798.925525  16218.570933      0.049969                    
P  5  -6722.947769 -24004.517915  -9142.615860    -92.252815                    
V  5   2433.548602 -11440.125542  28934.408869     -0.014063                    
P  6   7384.201354 -12668.534972  22205.472518    418.612123                    
V  6  23777.564292  14733.139341    571.301985      0.144493                    
P  7  22844.182123   3086.263580 -13196.138830    315.489011                    
V  7  13479.282059  11043.291014  24640.196233     -0.020683                    
P  8  10886.151974  11096.308314 -21608.788809    -79.750092                    
V  8 -23592.753933  13738.111027  -4493.458655     -0.016105                    
P  9  23808.211774  -4766.041200  10740.773186   -310.084610                    
V  9 -10672.605282   9037.414858  27446.640129      0.042169                    
P 10 -11476.005549  17280.552860 -16261.180810   -521.982596                    
V 10  -1283.876962 -21055.321913 -21569.332864     -0.134144                    
P 11  -4943.634905 -18759.518627  18149.318305    -10.836588                    
V 11  19804.811389  11864.780370  17623.511161     -0.007993                    
P 12 -10371.366461 -16922.842865  17437.284483   -259.623948                    
V 12   3786.289318 -22340.200221 -19038.215654     -0.059557                    
P 13   -606.156566 -15621.312652 -21608.913922    364.661707                    
V 13  25513.878858  -9033.252648   6035.439853      0.072213                    
P 14  13145.891729 -15547.680002 -16993.715809   -109.860760                    
V 14    577.944714  21741.363910 -19540.489904      0.013535                    
P 15 -12434.061265 -10635.200016 -21379.293650    -38.654710                    
V 15  21058.456180 -15674.215498  -4234.814913      0.030560                    
P 16    -66.653483  25997.601819  -4332.990490   -519.698183                    
V 16  -3484.527421   4854.505057  31580.474772     -0.017361                    
P 17  22375.557265 -13756.354628   4563.753582    646.528589                    
V 17   5638.618083   -273.525286 -31411.621899      0.041855                    
P 18 -22235.089682  -2585.608692 -14406.173962     87.221452                    
V 18 -14360.056584 -11322.788678  24086.492886     -0.119838                    
P 19  16776.514191 -15995.947322  12494.733217    194.924994                    
V 19  15916.584784  -4225.040846 -26492.157916      0.050329                    
P 20   -481.213905 -26360.024078   4124.139011    496.214089                    
V 20   3746.350802   4758.669568  30656.225798     -0.031360                    
P 21  19334.399276  16406.370248  -8407.215619    160.626145                    
V 21 -11102.685634  -3178.734044 -28847.552614     -0.002836                    
P 22 -13709.464973  17390.676790  14953.570599    306.889483                    
V 22 -17601.188070   5497.101221 -23355.303597      0.065980                    
P 23 -14542.883994   6600.705183 -21213.909761    -36.288433                    
V 23   -691.425101 -26903.415824  -8016.928503     -0.013401                    
P 24 -21685.351655 -15048.673615  -4859.331435    173.425281                    
V 24   6558.555469   -236.030058 -30078.298367     -0.112202                    
P 25 -15052.374268  -3110.480546  21392.477550    358.903391                    
V 25    769.581196 -27832.047796  -3193.577591      0.042931                    
P 26  -4019.589665  25244.885881   6494.413672    222.804651                    
V 26  -3946.896997  -8345.496057  29917.269653      0.019671                    
P 27  -2537.485523  17114.393041 -20253.053884    219.942194                    
V 27 -22788.081788  11102.379054  12751.258422     -0.013500                    
P 28   9293.242164 -22970.770054  -9366.611626    339.942838                    
V 28    772.491560  12727.789359 -28656.687556      0.013057                    
P 29 -24068.568714   2735.141029  10938.225517   -541.284106                    
V 29  11934.728150  -7376.830184  27901.532849     -0.033288                    
P 30  16504.171786  -6704.434914 -19681.372508   -535.603978                    
V 30  20582.106509  14615.748222  11970.098401     -0.005972                    
P 31  -5598.121762  14437.870494  21403.209215   -189.006487                    
V 31 -23462.937739 -14490.777261   4070.779730     -0.014153                    
P 32 -20038.193640  16130.151325   6341.370499   -199.135643                    
V 32  -8320.372744   1283.880945 -30452.823965     -0.105219                    
EOF
